ONEWEB-0694             
1 56722U 23068N   26031.64388656 -.00000088  00000+0 -26434-3 0  9998
2 56722  87.9025 255.9263 0001913  92.2797 267.8553 13.16594604133807
ONEWEB-0696             
1 56723U 23068P   26032.10609374  .00000001  00000+0 -30827-4 0  9990
2 56723  87.8990 286.3943 0001049  74.7134 285.4112 13.15548684131475
ONEWEB-0703             
1 56724U 23068Q   26032.11561503 -.00000133  00000+0 -38763-3 0  9996
2 56724  87.8991 286.3739 0001042  37.0438 323.0764 13.15548908131361
ONEWEB-0721             
1 56725U 23068R   26031.80156509 -.00000034  00000+0 -11591-3 0  9998
2 56725  86.6817 129.0483 0001697 106.7172 253.4148 13.22458719139919
ONEWEB-0015             
1 61594U 24188A   26032.04343340  .00000230  00000+0  61367-3 0  9992
2 61594  87.8811  48.1896 0002255  79.8628 280.2755 13.11415263 66615
ONEWEB-0687             
1 61595U 24188B   26032.00127680  .00000072  00000+0  15186-3 0  9998
2 61595  87.9082  32.9483 0002433  89.4068 270.7342 13.17652175 67969
ONEWEB-0688             
1 61596U 24188C   26032.25778549  .00000004  00000+0 -23207-4 0  9992
2 61596  87.9077  32.8966 0002827  67.8556 292.2875 13.17647426 67994
ONEWEB-0689             
1 61597U 24188D   26032.30622409 -.00000359  00000+0 -10494-2 0  9998
2 61597  87.8825  48.0726 0002120  96.9539 263.1830 13.11417346 66647
ONEWEB-0690             
1 61598U 24188E   26032.31640825  .00000033  00000+0  56394-4 0  9990
2 61598  87.8829  48.0905 0001215  78.6120 281.5145 13.11418358 66825
ONEWEB-0691             
1 61599U 24188F   26032.00613446 -.00000050  00000+0 -17803-3 0  9998
2 61599  87.8833  48.0507 0002182  83.5824 276.5552 13.11418726 66633
ONEWEB-0692             
1 61600U 24188G   26032.33166966  .00000656  00000+0  18153-2 0  9995
2 61600  87.8814  48.1253 0001922 119.7377 240.3943 13.11417321 66666
ONEWEB-0693             
1 61601U 24188H   26032.26959179  .00000032  00000+0  50205-4 0  9998
2 61601  87.9079  32.9159 0001362  63.7430 296.3841 13.17646735 67986
ONEWEB-0695             
1 61602U 24188J   26032.30791505 -.00000383  00000+0 -11174-2 0  9992
2 61602  87.8813  48.1197 0002121 104.7124 255.4239 13.11415999 66653
ONEWEB-0697             
1 61603U 24188K   26032.26385236  .00000496  00000+0  13644-2 0  9995
2 61603  87.8813  48.1186 0001822 117.5042 242.6271 13.11415359 66632
ONEWEB-0698             
1 61604U 24188L   26032.01291762  .00000226  00000+0  60238-3 0  9992
2 61604  87.8814  48.1841 0000992 126.8064 233.3155 13.11418633 66621
ONEWEB-0699             
1 61605U 24188M   26031.61195255  .00000733  00000+0  20620-2 0  9991
2 61605  87.8762  63.4803 0001706 117.5914 242.5387 13.10373810 65429
ONEWEB-0700             
1 61606U 24188N   26032.07176060  .00000721  00000+0  20300-2 0  9998
2 61606  87.8776  63.2785 0002211 114.9082 245.2275 13.10378044 65476
