[{"OBJECT_NAME":"ONEWEB-0694","OBJECT_ID":"2023-068N","EPOCH":"2026-01-31T15:27:11.798784","MEAN_MOTION":13.16594604,"ECCENTRICITY":0.00019136,"INCLINATION":87.9025,"RA_OF_ASC_NODE":255.9263,"ARG_OF_PERICENTER":92.2797,"MEAN_ANOMALY":267.8553,"EPHEMERIS_TYPE":0,"CLASSIFICATION_TYPE":"U","NORAD_CAT_ID":56722,"ELEMENT_SET_NO":999,"REV_AT_EPOCH":13380,"BSTAR":-0.00026434439,"MEAN_MOTION_DOT":-8.8e-7,"MEAN_MOTION_DDOT":0},{"OBJECT_NAME":"ONEWEB-0696","OBJECT_ID":"2023-068P","EPOCH":"2026-02-01T02:32:46.499136","MEAN_MOTION":13.15548684,"ECCENTRICITY":0.00010499,"INCLINATION":87.899,"RA_OF_ASC_NODE":286.3943,"ARG_OF_PERICENTER":74.7134,"MEAN_ANOMALY":285.4112,"EPHEMERIS_TYPE":0,"CLASSIFICATION_TYPE":"U","NORAD_CAT_ID":56723,"ELEMENT_SET_NO":999,"REV_AT_EPOCH":13147,"BSTAR":-3.0827202e-5,"MEAN_MOTION_DOT":1.0e-8,"MEAN_MOTION_DDOT":0},{"OBJECT_NAME":"ONEWEB-0703","OBJECT_ID":"2023-068Q","EPOCH":"2026-02-01T02:46:29.138592","MEAN_MOTION":13.15548908,"ECCENTRICITY":0.00010423,"INCLINATION":87.8991,"RA_OF_ASC_NODE":286.3739,"ARG_OF_PERICENTER":37.0438,"MEAN_ANOMALY":323.0764,"EPHEMERIS_TYPE":0,"CLASSIFICATION_TYPE":"U","NORAD_CAT_ID":56724,"ELEMENT_SET_NO":999,"REV_AT_EPOCH":13136,"BSTAR":-0.00038762921,"MEAN_MOTION_DOT":-1.33e-6,"MEAN_MOTION_DDOT":0},{"OBJECT_NAME":"ONEWEB-0721","OBJECT_ID":"2023-068R","EPOCH":"2026-01-31T19:14:15.223776","MEAN_MOTION":13.22458719,"ECCENTRICITY":0.00016972,"INCLINATION":86.6817,"RA_OF_ASC_NODE":129.0483,"ARG_OF_PERICENTER":106.7172,"MEAN_ANOMALY":253.4148,"EPHEMERIS_TYPE":0,"CLASSIFICATION_TYPE":"U","NORAD_CAT_ID":56725,"ELEMENT_SET_NO":999,"REV_AT_EPOCH":13991,"BSTAR":-0.00011591063,"MEAN_MOTION_DOT":-3.4e-7,"MEAN_MOTION_DDOT":0},{"OBJECT_NAME":"ONEWEB-0015","OBJECT_ID":"2024-188A","EPOCH":"2026-02-01T01:02:32.645760","MEAN_MOTION":13.11415263,"ECCENTRICITY":0.00022558,"INCLINATION":87.8811,"RA_OF_ASC_NODE":48.1896,"ARG_OF_PERICENTER":79.8628,"MEAN_ANOMALY":280.2755,"EPHEMERIS_TYPE":0,"CLASSIFICATION_TYPE":"U","NORAD_CAT_ID":61594,"ELEMENT_SET_NO":999,"REV_AT_EPOCH":6661,"BSTAR":0.00061367229,"MEAN_MOTION_DOT":2.3e-6,"MEAN_MOTION_DDOT":0},{"OBJECT_NAME":"ONEWEB-0687","OBJECT_ID":"2024-188B","EPOCH":"2026-02-01T00:01:50.315520","MEAN_MOTION":13.17652175,"ECCENTRICITY":0.0002433,"INCLINATION":87.9082,"RA_OF_ASC_NODE":32.9483,"ARG_OF_PERICENTER":89.4068,"MEAN_ANOMALY":270.7342,"EPHEMERIS_TYPE":0,"CLASSIFICATION_TYPE":"U","NORAD_CAT_ID":61595,"ELEMENT_SET_NO":999,"REV_AT_EPOCH":6796,"BSTAR":0.00015186253,"MEAN_MOTION_DOT":7.2e-7,"MEAN_MOTION_DDOT":0},{"OBJECT_NAME":"ONEWEB-0688","OBJECT_ID":"2024-188C","EPOCH":"2026-02-01T06:11:12.666336","MEAN_MOTION":13.17647426,"ECCENTRICITY":0.00028279,"INCLINATION":87.9077,"RA_OF_ASC_NODE":32.8966,"ARG_OF_PERICENTER":67.8556,"MEAN_ANOMALY":292.2875,"EPHEMERIS_TYPE":0,"CLASSIFICATION_TYPE":"U","NORAD_CAT_ID":61596,"ELEMENT_SET_NO":999,"REV_AT_EPOCH":6799,"BSTAR":-2.3207046e-5,"MEAN_MOTION_DOT":4.0e-8,"MEAN_MOTION_DDOT":0},{"OBJECT_NAME":"ONEWEB-0689","OBJECT_ID":"2024-188D","EPOCH":"2026-02-01T07:20:57.761376","MEAN_MOTION":13.11417346,"ECCENTRICITY":0.00021209,"INCLINATION":87.8825,"RA_OF_ASC_NODE":48.0726,"ARG_OF_PERICENTER":96.9539,"MEAN_ANOMALY":263.183,"EPHEMERIS_TYPE":0,"CLASSIFICATION_TYPE":"U","NORAD_CAT_ID":61597,"ELEMENT_SET_NO":999,"REV_AT_EPOCH":6664,"BSTAR":-0.0010493791,"MEAN_MOTION_DOT":-3.59e-6,"MEAN_MOTION_DDOT":0},{"OBJECT_NAME":"ONEWEB-0690","OBJECT_ID":"2024-188E","EPOCH":"2026-02-01T07:35:37.672800","MEAN_MOTION":13.11418358,"ECCENTRICITY":0.00012159,"INCLINATION":87.8829,"RA_OF_ASC_NODE":48.0905,"ARG_OF_PERICENTER":78.612,"MEAN_ANOMALY":281.5145,"EPHEMERIS_TYPE":0,"CLASSIFICATION_TYPE":"U","NORAD_CAT_ID":61598,"ELEMENT_SET_NO":999,"REV_AT_EPOCH":6682,"BSTAR":5.6394276e-5,"MEAN_MOTION_DOT":3.3e-7,"MEAN_MOTION_DDOT":0},{"OBJECT_NAME":"ONEWEB-0691","OBJECT_ID":"2024-188F","EPOCH":"2026-02-01T00:08:50.017344","MEAN_MOTION":13.11418726,"ECCENTRICITY":0.00021826,"INCLINATION":87.8833,"RA_OF_ASC_NODE":48.0507,"ARG_OF_PERICENTER":83.5824,"MEAN_ANOMALY":276.5552,"EPHEMERIS_TYPE":0,"CLASSIFICATION_TYPE":"U","NORAD_CAT_ID":61599,"ELEMENT_SET_NO":999,"REV_AT_EPOCH":6663,"BSTAR":-0.00017803204,"MEAN_MOTION_DOT":-5.0e-7,"MEAN_MOTION_DDOT":0},{"OBJECT_NAME":"ONEWEB-0692","OBJECT_ID":"2024-188G","EPOCH":"2026-02-01T07:57:36.258624","MEAN_MOTION":13.11417321,"ECCENTRICITY":0.00019225,"INCLINATION":87.8814,"RA_OF_ASC_NODE":48.1253,"ARG_OF_PERICENTER":119.7377,"MEAN_ANOMALY":240.3943,"EPHEMERIS_TYPE":0,"CLASSIFICATION_TYPE":"U","NORAD_CAT_ID":61600,"ELEMENT_SET_NO":999,"REV_AT_EPOCH":6666,"BSTAR":0.0018153311,"MEAN_MOTION_DOT":6.56e-6,"MEAN_MOTION_DDOT":0},{"OBJECT_NAME":"ONEWEB-0693","OBJECT_ID":"2024-188H","EPOCH":"2026-02-01T06:28:12.730656","MEAN_MOTION":13.17646735,"ECCENTRICITY":0.00013627,"INCLINATION":87.9079,"RA_OF_ASC_NODE":32.9159,"ARG_OF_PERICENTER":63.743,"MEAN_ANOMALY":296.3841,"EPHEMERIS_TYPE":0,"CLASSIFICATION_TYPE":"U","NORAD_CAT_ID":61601,"ELEMENT_SET_NO":999,"REV_AT_EPOCH":6798,"BSTAR":5.0204553e-5,"MEAN_MOTION_DOT":3.2e-7,"MEAN_MOTION_DDOT":0},{"OBJECT_NAME":"ONEWEB-0695","OBJECT_ID":"2024-188J","EPOCH":"2026-02-01T07:23:23.860320","MEAN_MOTION":13.11415999,"ECCENTRICITY":0.00021213,"INCLINATION":87.8813,"RA_OF_ASC_NODE":48.1197,"ARG_OF_PERICENTER":104.7124,"MEAN_ANOMALY":255.4239,"EPHEMERIS_TYPE":0,"CLASSIFICATION_TYPE":"U","NORAD_CAT_ID":61602,"ELEMENT_SET_NO":999,"REV_AT_EPOCH":6665,"BSTAR":-0.0011174254,"MEAN_MOTION_DOT":-3.83e-6,"MEAN_MOTION_DDOT":0},{"OBJECT_NAME":"ONEWEB-0697","OBJECT_ID":"2024-188K","EPOCH":"2026-02-01T06:19:56.843904","MEAN_MOTION":13.11415359,"ECCENTRICITY":0.00018221,"INCLINATION":87.8813,"RA_OF_ASC_NODE":48.1186,"ARG_OF_PERICENTER":117.5042,"MEAN_ANOMALY":242.6271,"EPHEMERIS_TYPE":0,"CLASSIFICATION_TYPE":"U","NORAD_CAT_ID":61603,"ELEMENT_SET_NO":999,"REV_AT_EPOCH":6663,"BSTAR":0.0013643856,"MEAN_MOTION_DOT":4.96e-6,"MEAN_MOTION_DDOT":0},{"OBJECT_NAME":"ONEWEB-0698","OBJECT_ID":"2024-188L","EPOCH":"2026-02-01T00:18:36.082368","MEAN_MOTION":13.11418633,"ECCENTRICITY":9.926e-5,"INCLINATION":87.8814,"RA_OF_ASC_NODE":48.1841,"ARG_OF_PERICENTER":126.8064,"MEAN_ANOMALY":233.3155,"EPHEMERIS_TYPE":0,"CLASSIFICATION_TYPE":"U","NORAD_CAT_ID":61604,"ELEMENT_SET_NO":999,"REV_AT_EPOCH":6662,"BSTAR":0.00060237883,"MEAN_MOTION_DOT":2.26e-6,"MEAN_MOTION_DDOT":0},{"OBJECT_NAME":"ONEWEB-0699","OBJECT_ID":"2024-188M","EPOCH":"2026-01-31T14:41:12.700320","MEAN_MOTION":13.1037381,"ECCENTRICITY":0.00017069,"INCLINATION":87.8762,"RA_OF_ASC_NODE":63.4803,"ARG_OF_PERICENTER":117.5914,"MEAN_ANOMALY":242.5387,"EPHEMERIS_TYPE":0,"CLASSIFICATION_TYPE":"U","NORAD_CAT_ID":61605,"ELEMENT_SET_NO":999,"REV_AT_EPOCH":6542,"BSTAR":0.0020620067,"MEAN_MOTION_DOT":7.33e-6,"MEAN_MOTION_DDOT":0},{"OBJECT_NAME":"ONEWEB-0700","OBJECT_ID":"2024-188N","EPOCH":"2026-02-01T01:43:20.115840","MEAN_MOTION":13.10378044,"ECCENTRICITY":0.00022111,"INCLINATION":87.8776,"RA_OF_ASC_NODE":63.2785,"ARG_OF_PERICENTER":114.9082,"MEAN_ANOMALY":245.2275,"EPHEMERIS_TYPE":0,"CLASSIFICATION_TYPE":"U","NORAD_CAT_ID":61606,"ELEMENT_SET_NO":999,"REV_AT_EPOCH":6547,"BSTAR":0.0020299985,"MEAN_MOTION_DOT":7.21e-6,"MEAN_MOTION_DDOT":0}]
